NORAD_CAT_ID,OBJECT_NAME,OBJECT_TYPE,EPOCH,MEAN_MOTION,ECCENTRICITY,INCLINATION,RA_OF_ASC_NODE,ARG_OF_PERICENTER,MEAN_ANOMALY,BSTAR,MEAN_MOTION_DOT,MEAN_MOTION_DDOT,TLE_LINE0,TLE_LINE1,TLE_LINE2,SEMIMAJOR_AXIS,PERIOD,APOGEE,PERIGEE,DECAYED
53160.0,STARLINK-4096,PAYLOAD,2024-08-04 03:19:10,15.08849698,0.0001499,53.2154,259.2981,88.2942,271.8222,0.00045668,6.989e-05,0.0,0 STARLINK-4096,1 53160U 22083AE  24217.13831959  .00006989  00000-0  45668-3 0  9999,2 53160  53.2154 259.2981 0001499  88.2942 271.8222 15.08849698114041,6917.851,95.437,540.753,538.679,0.0
53160.0,STARLINK-4096,PAYLOAD,2024-08-04 12:51:29,15.0884405,0.0001421,53.2157,257.5134,88.0272,272.0883,0.00019452,2.81e-05,0.0,0 STARLINK-4096,1 53160U 22083AE  24217.53575993  .00002810  00000-0  19452-3 0  9997,2 53160  53.2157 257.5134 0001421  88.0272 272.0883 15.08844050114104,6917.868,95.437,540.716,538.75,0.0
53160.0,STARLINK-4096,PAYLOAD,2024-08-04 19:13:01,15.0885248,0.000141,53.2159,256.3247,87.0421,273.0732,0.00030742,4.61e-05,0.0,0 STARLINK-4096,1 53160U 22083AE  24217.80071552  .00004610  00000-0  30742-3 0  9994,2 53160  53.2159 256.3247 0001410  87.0421 273.0732 15.08852480113515,6917.842,95.437,540.683,538.732,0.0
53160.0,STARLINK-4096,PAYLOAD,2024-08-05 01:34:34,15.08855846,0.0001678,53.2164,255.1362,110.7228,249.3944,0.00031979,4.807e-05,0.0,0 STARLINK-4096,1 53160U 22083AE  24218.06567234  .00004807  00000-0  31979-3 0  9991,2 53160  53.2164 255.1362 0001678 110.7228 249.3944 15.08855846114185,6917.832,95.437,540.858,538.536,0.0
53160.0,STARLINK-4096,PAYLOAD,2024-08-05 09:31:30,15.08848317,0.000133,53.2157,253.65,97.0307,263.0837,0.00014191,1.972e-05,0.0,0 STARLINK-4096,1 53160U 22083AE  24218.39687758  .00001972  00000-0  14191-3 0  9998,2 53160  53.2157 253.6500 0001330  97.0307 263.0837 15.08848317114239,6917.855,95.437,540.64,538.8,0.0
53160.0,STARLINK-4096,PAYLOAD,2024-08-05 19:03:48,15.08855884,0.0001531,53.2159,251.8652,94.4427,265.674,0.00024188,3.565e-05,0.0,0 STARLINK-4096,1 53160U 22083AE  24218.79430888  .00003565  00000-0  24188-3 0  9999,2 53160  53.2159 251.8652 0001531  94.4427 265.6740 15.08855884114290,6917.832,95.437,540.756,538.638,0.0
53160.0,STARLINK-4096,PAYLOAD,2024-08-06 01:25:21,15.08840872,0.0002383,53.2164,250.6753,97.2577,262.8686,3.9923e-05,3.47e-06,0.0,0 STARLINK-4096,1 53160U 22083AE  24219.05927622  .00000347  00000-0  39923-4 0  9995,2 53160  53.2164 250.6753 0002383  97.2577 262.8686 15.08840872114332,6917.878,95.437,541.391,538.094,0.0
53160.0,STARLINK-4096,PAYLOAD,2024-08-06 12:33:04,15.0882578,0.0001527,53.2156,248.5927,100.3992,259.7172,-0.00020903,-3.612e-05,0.0,0 STARLINK-4096,1 53160U 22083AE  24219.52296336 -.00003612  00000-0 -20903-3 0  9995,2 53160  53.2156 248.5927 0001527 100.3992 259.7172 15.08825780114402,6917.924,95.438,540.845,538.732,0.0
53160.0,STARLINK-4096,PAYLOAD,2024-08-06 18:54:36,15.08829641,0.0001518,53.2156,247.4034,98.6494,261.467,-0.00011215,-2.072e-05,0.0,0 STARLINK-4096,1 53160U 22083AE  24219.78792400 -.00002072  00000-0 -11215-3 0  9991,2 53160  53.2156 247.4034 0001518  98.6494 261.4670 15.08829641113812,6917.912,95.438,540.827,538.727,0.0
53160.0,STARLINK-4096,PAYLOAD,2024-08-07 10:48:28,15.08838167,0.0001415,53.214,244.4288,101.0256,259.0895,0.00070939,0.00011019,0.0,0 STARLINK-4096,1 53160U 22083AE  24220.45032894  .00011019  00000-0  70939-3 0  9998,2 53160  53.2140 244.4288 0001415 101.0256 259.0895 15.08838167114540,6917.886,95.438,540.73,538.772,0.0
53160.0,STARLINK-4096,PAYLOAD,2024-08-08 09:03:51,15.08857236,0.0001388,53.2138,240.2653,101.4048,258.71,0.00071646,0.00011138,0.0,0 STARLINK-4096,1 53160U 22083AE  24221.37768385  .00011138  00000-0  71646-3 0  9999,2 53160  53.2138 240.2653 0001388 101.4048 258.7100 15.08857236114058,6917.828,95.436,540.653,538.733,0.0
53160.0,STARLINK-4096,PAYLOAD,2024-08-09 00:57:42,15.08854894,0.000143,53.2137,237.291,99.5029,260.6125,0.00039684,6.036e-05,0.0,0 STARLINK-4096,1 53160U 22083AE  24222.04007990  .00006036  00000-0  39684-3 0  9999,2 53160  53.2137 237.2910 0001430  99.5029 260.6125 15.08854894114789,6917.835,95.437,540.689,538.711,0.0
53160.0,STARLINK-4096,PAYLOAD,2024-08-09 05:43:52,15.08848552,0.0001476,53.2148,236.3965,94.3723,265.7437,0.00016926,2.407e-05,0.0,0 STARLINK-4096,1 53160U 22083AE  24222.23880136  .00002407  00000-0  16926-3 0  9993,2 53160  53.2148 236.3965 0001476  94.3723 265.7437 15.08848552114815,6917.854,95.437,540.74,538.698,0.0
53160.0,STARLINK-4096,PAYLOAD,2024-08-09 18:26:57,15.08849189,0.0001427,53.2153,234.0181,94.1549,265.9606,0.00016107,2.277e-05,0.0,0 STARLINK-4096,1 53160U 22083AE  24222.76872001  .00002277  00000-0  16107-3 0  9999,2 53160  53.2153 234.0181 0001427  94.1549 265.9606 15.08849189114262,6917.852,95.437,540.704,538.73,0.0
53160.0,STARLINK-4096,PAYLOAD,2024-08-10 03:59:16,15.08846009,0.0001512,53.2163,232.235,95.4996,264.6168,4.6567e-05,4.53e-06,0.0,0 STARLINK-4096,1 53160U 22083AE  24223.16616057  .00000453  00000-0  46567-4 0  9999,2 53160  53.2163 232.2350 0001512  95.4996 264.6168 15.08846009114959,6917.862,95.437,540.773,538.681,0.0
53160.0,STARLINK-4096,PAYLOAD,2024-08-11 10:11:36,15.08837835,0.0001482,53.2168,226.5852,96.5279,263.5882,2.6482e-05,1.33e-06,0.0,0 STARLINK-4096,1 53160U 22083AE  24224.42472438  .00000133  00000-0  26482-4 0  9991,2 53160  53.2168 226.5852 0001482  96.5279 263.5882 15.08837835115149,6917.887,95.438,540.777,538.727,0.0
53160.0,STARLINK-4096,PAYLOAD,2024-08-12 06:51:36,15.0883866,0.000138,53.2163,222.7203,91.5664,268.5486,0.00021798,3.183e-05,0.0,0 STARLINK-4096,1 53160U 22083AE  24225.28583973  .00003183  00000-0  21798-3 0  9995,2 53160  53.2163 222.7203 0001380  91.5664 268.5486 15.08838660114648,6917.884,95.438,540.704,538.795,0.0
53160.0,STARLINK-4096,PAYLOAD,2024-08-12 16:23:54,15.08858162,0.0001357,53.2164,220.936,93.1021,267.0126,0.00018344,2.634e-05,0.0,0 STARLINK-4096,1 53160U 22083AE  24225.68326586  .00002634  00000-0  18344-3 0  9997,2 53160  53.2164 220.9360 0001357  93.1021 267.0126 15.08858162115333,6917.825,95.436,540.629,538.751,0.0
53160.0,STARLINK-4096,PAYLOAD,2024-08-12 22:45:28,15.08840759,0.0002655,53.2156,219.7455,84.7826,275.3469,0.00014822,2.071e-05,0.0,0 STARLINK-4096,1 53160U 22083AE  24225.94824387  .00002071  00000-0  14822-3 0  9990,2 53160  53.2156 219.7455 0002655  84.7826 275.3469 15.08840759114745,6917.878,95.438,541.58,537.906,0.0
53160.0,STARLINK-4096,PAYLOAD,2024-08-13 05:07:03,15.08783584,0.0001686,53.2159,218.5575,106.7865,253.3313,-0.00066962,-0.00010913,0.0,0 STARLINK-4096,1 53160U 22083AE  24226.21323402 -.00010913  00000-0 -66962-3 0  9991,2 53160  53.2159 218.5575 0001686 106.7865 253.3313 15.08783584115410,6918.053,95.441,541.084,538.751,0.0
53160.0,STARLINK-4096,PAYLOAD,2024-08-13 09:53:12,15.08783005,0.0001573,53.2157,217.6653,100.439,259.6779,-0.00084358,-0.00013667,0.0,0 STARLINK-4096,1 53160U 22083AE  24226.41195391 -.00013667  00000-0 -84358-3 0  9995,2 53160  53.2157 217.6653 0001573 100.4390 259.6779 15.08783005115440,6918.055,95.441,541.008,538.831,0.0
53160.0,STARLINK-4096,PAYLOAD,2024-08-13 16:14:45,15.08783148,0.0001734,53.2161,216.477,109.7183,250.3996,-0.00074427,-0.00012095,0.0,0 STARLINK-4096,1 53160U 22083AE  24226.67691963 -.00012095  00000-0 -74427-3 0  9999,2 53160  53.2161 216.4770 0001734 109.7183 250.3996 15.08783148115484,6918.054,95.441,541.119,538.72,0.0
53160.0,STARLINK-4096,PAYLOAD,2024-08-14 04:57:50,15.08833007,0.0001853,53.2153,214.0968,108.8877,251.2316,0.0011615,0.00018242,0.0,0 STARLINK-4096,1 53160U 22083AE  24227.20683820  .00018242  00000-0  11615-2 0  9999,2 53160  53.2153 214.0968 0001853 108.8877 251.2316 15.08833007115565,6917.902,95.438,541.049,538.485,0.0
53160.0,STARLINK-4096,PAYLOAD,2024-08-14 08:08:37,15.08839924,0.00019,53.2149,213.502,112.6711,247.4482,0.0018514,0.000293,0.0,0 STARLINK-4096,1 53160U 22083AE  24227.33932192  .00029300  00000-0  18514-2 0  9994,2 53160  53.2149 213.5020 0001900 112.6711 247.4482 15.08839924114953,6917.881,95.438,541.06,538.431,0.0
53160.0,STARLINK-4096,PAYLOAD,2024-08-14 16:05:32,15.08855789,0.0001903,53.2146,212.0147,114.58,245.5391,0.0011195,0.00017582,0.0,0 STARLINK-4096,1 53160U 22083AE  24227.67051673  .00017582  00000-0  11195-2 0  9994,2 53160  53.2146 212.0147 0001903 114.5800 245.5391 15.08855789115009,6917.832,95.437,541.014,538.381,0.0
53160.0,STARLINK-4096,PAYLOAD,2024-08-15 06:23:59,15.08876602,0.0001869,53.2138,209.3374,115.7529,244.3657,0.00073397,0.00011424,0.0,0 STARLINK-4096,1 53160U 22083AE  24228.26666247  .00011424  00000-0  73397-3 0  9991,2 53160  53.2138 209.3374 0001869 115.7529 244.3657 15.08876602115091,6917.769,95.435,540.926,538.341,0.0
53160.0,STARLINK-4096,PAYLOAD,2024-08-15 15:56:17,15.08883422,0.0001851,53.214,207.5494,108.8855,251.2338,0.00067208,0.00010437,0.0,0 STARLINK-4096,1 53160U 22083AE  24228.66409219  .00010437  00000-0  67208-3 0  9996,2 53160  53.2140 207.5494 0001851 108.8855 251.2338 15.08883422115780,6917.748,95.435,540.893,538.332,0.0
53160.0,STARLINK-4096,PAYLOAD,2024-08-16 04:39:22,15.08856149,0.00018,53.2133,205.1746,113.0873,247.0309,-3.9835e-05,-9.22e-06,0.0,0 STARLINK-4096,1 53160U 22083AE  24229.19401028 -.00000922  00000-0 -39835-4 0  9991,2 53160  53.2133 205.1746 0001800 113.0873 247.0309 15.08856149115864,6917.831,95.437,540.941,538.451,0.0
53160.0,STARLINK-4096,PAYLOAD,2024-08-16 06:14:45,15.08857001,0.0001794,53.2134,204.8773,113.3223,246.7958,9.4327e-05,1.214e-05,0.0,0 STARLINK-4096,1 53160U 22083AE  24229.26024977  .00001214  00000-0  94327-4 0  9993,2 53160  53.2134 204.8773 0001794 113.3223 246.7958 15.08857001115241,6917.828,95.436,540.934,538.452,0.0
53160.0,STARLINK-4096,PAYLOAD,2024-08-17 04:30:09,15.08843782,0.0001847,53.2148,200.7118,111.3548,248.7641,0.00052257,8.039e-05,0.0,0 STARLINK-4096,1 53160U 22083AE  24230.18761131  .00008039  00000-0  52257-3 0  9993,2 53160  53.2148 200.7118 0001847 111.3548 248.7641 15.08843782116019,6917.869,95.437,541.012,538.456,0.0
